STARLINK N              
1 57710U 23129N   23250.18916039 -.00063767  00000+0 -28189-3 0  9997
2 57710  43.0019  59.4675 0002493 233.8985 126.1657 15.83504804  2975
STARLINK P              
1 57711U 23129P   23249.93692864 -.00185434  00000+0 -82047-3 0  9995
2 57711  43.0034  61.0163 0003163 240.6242 119.4315 15.83890111  2684
STARLINK Q              
1 57712U 23129Q   23250.18903769  .00122072  00000+0  52734-3 0  9991
2 57712  43.0024  59.4663 0000341  13.8330 346.2551 15.83820748  2976
STARLINK R              
1 57713U 23129R   23249.93667564 -.00181194  00000+0 -80026-3 0  9990
2 57713  43.0036  61.0131 0001636 264.7763  95.2923 15.83925006  2623
STARLINK S              
1 57714U 23129S   23249.93676237 -.00202452  00000+0 -89746-3 0  9997
2 57714  43.0036  61.0163 0002593 243.2705 116.7903 15.83899791  2932
STARLINK T              
1 57715U 23129T   23249.93684213 -.00241645  00000+0 -10788-2 0  9997
2 57715  43.0035  61.0171 0003012 239.1941 120.8635 15.83851071  2931
STARLINK U              
1 57716U 23129U   23249.93757119 -.00135454  00000+0 -59562-3 0  9998
2 57716  43.0025  61.0203 0003676 219.8007 140.2596 15.83874989  2622
STARLINK V              
1 57717U 23129V   23249.93669773 -.00062685  00000+0 -27041-3 0  9999
2 57717  43.0028  61.0151 0002256 253.4077 106.6548 15.84011824  2931
STARLINK W              
1 57718U 23129W   23250.18884041  .00031537  00000+0  14106-3 0  9994
2 57718  43.0040  59.4657 0001009  43.2015 316.8936 15.83575855  2978
STARLINK X              
1 57719U 23129X   23249.93659645 -.00119677  00000+0 -52265-3 0  9998
2 57719  43.0037  61.0138 0003011 246.6769 113.3786 15.83974281  2786
2023-130A               
1 57727U 23130A   23247.50136433  .00017102  00000+0  71111-3 0  9994
2 57727  34.9996  42.4162 0008138 296.4659 106.8910 15.22910743   616
2023-130B               
1 57728U 23130B   23247.50196432  .00009637  00000+0  39863-3 0  9992
2 57728  35.0003  42.4067 0009149 292.8214 117.4169 15.23167559   649
2023-130C               
1 57729U 23130C   23247.50064442  .00032971  00000+0  13512-2 0  9997
2 57729  34.9972  42.4100 0009693 303.5889  99.8926 15.23278750   609
2023-130D               
1 57730U 23130D   23247.57047779  .00032621  00000+0  13348-2 0  9999
2 57730  35.0021  41.9710 0009981 300.6126 127.0503 15.23328562   625
2023-130E               
1 57731U 23130E   23247.56929903  .00017926  00000+0  73394-3 0  9996
2 57731  34.9987  41.9722 0009423 304.3224 119.0797 15.23412011   628
2023-132A               
1 57754U 23132A   23245.65206230 -.00000128  00000+0  00000+0 0  9999
2 57754  19.2862  21.4741 5934257 346.7698 165.0186  4.18358561    14
2023-132B               
1 57755U 23132B   23249.84626363  .00016746  00000+0  13700-2 0  9994
2 57755  19.2810  17.9361 5932988 353.2624   1.3331  4.18390526   197
2023-133A               
1 57756U 23133A   23246.82602169  .00000011  00000+0  00000+0 0  9993
2 57756  80.9989 263.9716 0009198 215.8595 276.7617 13.86059341   164
2023-133B               
1 57757U 23133B   23246.82450412  .00000011  00000+0  00000+0 0  9996
2 57757  80.9958 263.9680 0008632 212.9717 271.5701 13.85935983   168
2023-133C               
1 57758U 23133C   23246.82315025  .00000011  00000+0  00000+0 0  9997
2 57758  80.9927 263.9669 0007857 214.2618 262.9578 13.85800851   166
2023-133D               
1 57759U 23133D   23246.46129418  .00000011  00000+0  00000+0 0  9997
2 57759  80.9987 264.3158 0007738 216.8451 255.8787 13.85736712   114
2023-133E               
1 57760U 23133E   23249.76005734  .00000067  00000+0  49132-4 0  9994
2 57760  80.9954 261.1464 0007679 209.5493 150.5231 13.85726266   572
2023-133F               
1 57761U 23133F   23249.97966579  .00000063  00000+0  46349-4 0  9994
2 57761  80.9951 260.9420 0004369 238.3753 121.6977 13.84766714   602
2023-133G               
1 57762U 23133G   23250.05047917  .00000082  00000+0  62379-4 0  9994
2 57762  80.9965 260.8713 0005216 213.7439 146.3386 13.85220134   613
2023-133H               
1 57763U 23133H   23249.97890126  .00000087  00000+0  67201-4 0  9996
2 57763  80.9912 260.9396 0004668 223.8428 136.2358 13.85011366   605
2023-133J               
1 57764U 23133J   23249.97768232  .00000082  00000+0  62751-4 0  9999
2 57764  80.9958 260.9396 0005690 206.3705 153.7163 13.85401688   604
2023-133K               
1 57765U 23133K   23249.97872398  .00000079  00000+0  59930-4 0  9990
2 57765  80.9999 260.9426 0004800 220.9733 139.1063 13.85068279   601
2023-133L               
1 57766U 23133L   23249.97802628  .00000074  00000+0  55603-4 0  9998
2 57766  80.9988 260.9409 0005387 210.8218 149.2623 13.85291557   609
2023-133M               
1 57767U 23133M   23249.76253201  .00000063  00000+0  45789-4 0  9995
2 57767  80.9921 261.1487 0004484 231.4913 128.5841 13.84892469   570
2023-133N               
1 57768U 23133N   23249.97860142  .00000156  00000+0  12830-3 0  9990
2 57768  80.9911 260.9391 0004917 219.2360 140.8441 13.85107607   614
2023-133P               
1 57769U 23133P   23249.76172486  .00000081  00000+0  61765-4 0  9994
2 57769  80.9998 261.1499 0005053 217.1297 142.9510 13.85164634   578
TIANQI 21               
1 57792U 23135A   23250.05460923 -.00000042  00000+0  46918-4 0  9993
2 57792  49.9713  97.0504 0012022 309.8093  50.1763 14.29216166   245
TIANQI 22               
1 57793U 23135B   23250.12430943 -.00000041  00000+0  46821-4 0  9993
2 57793  49.9684  96.7517 0012561 312.8775  47.1084 14.29399493   250
TIANQI 23               
1 57794U 23135C   23250.05430024  .00000264  00000+0  16527-3 0  9991
2 57794  49.9722  97.0489 0012394 315.7602  44.2321 14.29488025   242
TIANQI 24               
1 57795U 23135D   23250.12419042  .00000915  00000+0  41823-3 0  9997
2 57795  49.9731  96.7514 0013150 313.4885  46.4936 14.29499197   256
CERES-1 R/B             
1 57796U 23135E   23250.08202372  .01414520  96042-5  79820-3 0  9996
2 57796  49.9235  95.7131 0467051 355.3660   4.3046 15.27374785   269
2023-136A               
1 57797U 23136A   23250.38165928 -.00000047  00000+0  00000+0 0  9994
2 57797  98.1575 173.6901 0004888 250.3216 261.0999 14.62761311    82
2023-136B               
1 57798U 23136B   23250.37059142 -.00000074  00000+0  00000+0 0  9994
2 57798  98.1658 173.7413 0134574  54.1607 102.2883 14.92670958    92
2023-137A               
1 57800U 23138A   23250.38227316  .00000085  00000+0  00000+0 0  9992
2 57800  31.0019  14.1914 0009792 281.1428 122.7293 14.97781618    63
